ONEWEB-0647             
1 56079U 23043AK  25307.69120567 -.00000183  00000+0 -52139-3 0  9998
2 56079  87.8966 304.2352 0001877  95.0144 265.1200 13.15550380126778
ONEWEB-0651             
1 56080U 23043AL  25307.68646058  .00000178  00000+0  43885-3 0  9997
2 56080  87.8955 304.2284 0001551  88.3166 271.8142 13.15548001127979
ONEWEB-0718             
1 56081U 23043AM  25306.46479029  .00000018  00000+0  14552-4 0  9998
2 56081  87.8962 304.4531 0002258  78.3805 281.7579 13.15550215126624
ONEWEB-0561             
1 56710U 23068A   25306.45771304  .00000048  00000+0  85349-4 0  9999
2 56710  87.9185 319.6714 0001615 106.0636 254.0675 13.20770911119578
ONEWEB-0668             
1 56711U 23068B   25307.65446520  .00000032  00000+0  48788-4 0  9991
2 56711  87.9006 273.6777 0002071  69.6789 290.4566 13.18149549122109
ONEWEB-0676             
1 56712U 23068C   25307.64985697  .00002849  00000+0  74168-2 0  9991
2 56712  87.8990 273.6992 0001939  85.5480 274.5872 13.16582397122021
ONEWEB-0677             
1 56713U 23068D   25307.73452399  .00000160  00000+0  36037-3 0  9998
2 56713  87.9189 319.3962 0001711  90.8495 269.2834 13.20773364120041
ONEWEB-0678             
1 56714U 23068E   25307.72607310  .00000002  00000+0 -28509-4 0  9995
2 56714  87.8957 304.1750 0002035  99.3867 260.7494 13.15549645119647
ONEWEB-0679             
1 56715U 23068F   25307.83682971  .00000069  00000+0  14776-3 0  9996
2 56715  87.8990 273.6478 0001551  69.2800 290.8497 13.16594754122077
ONEWEB-0680             
1 56716U 23068G   25307.67275926 -.00000070  00000+0 -20037-3 0  9998
2 56716  87.9173 288.9485 0001923  67.8777 292.2561 13.21824957121309
ONEWEB-0681             
1 56717U 23068H   25307.65221330  .00000070  00000+0  13733-3 0  9990
2 56717  87.9170 288.9704 0000972 109.1676 250.9563 13.21827021121298
ONEWEB-0682             
1 56718U 23068J   25306.45925441  .00000193  00000+0  47805-3 0  9995
2 56718  87.8958 304.4454 0001831  74.7414 285.3918 13.15548553119645
ONEWEB-0683             
1 56719U 23068K   25307.69755971  .00000023  00000+0  27292-4 0  9993
2 56719  87.8960 304.1785 0001882  81.5724 278.5619 13.15549188119770
ONEWEB-0684             
1 56720U 23068L   25307.70548507  .00000020  00000+0  18708-4 0  9991
2 56720  87.8955 304.1722 0003128 103.8436 256.3042 13.15548996119602
ONEWEB-0686             
1 56721U 23068M   25307.60869256  .00000059  00000+0  11959-3 0  9990
2 56721  87.8987 273.7261 0002194  78.0723 282.0654 13.16595470122037
ONEWEB-0694             
1 56722U 23068N   25306.43548963 -.00000078  00000+0 -23737-3 0  9990
2 56722  87.9002 273.8988 0001853  69.6927 290.4403 13.16594640121938
ONEWEB-0696             
1 56723U 23068P   25307.73875508  .00000017  00000+0  11648-4 0  9993
2 56723  87.8955 304.2214 0002032  99.9587 260.1772 13.15548631119729
