[{"OBJECT_NAME":"ONEWEB-0647","OBJECT_ID":"2023-043AK","EPOCH":"2025-11-03T16:35:20.169888","MEAN_MOTION":13.1555038,"ECCENTRICITY":0.0001877,"INCLINATION":87.8966,"RA_OF_ASC_NODE":304.2352,"ARG_OF_PERICENTER":95.0144,"MEAN_ANOMALY":265.12,"EPHEMERIS_TYPE":0,"CLASSIFICATION_TYPE":"U","NORAD_CAT_ID":56079,"ELEMENT_SET_NO":999,"REV_AT_EPOCH":12677,"BSTAR":-0.00052139,"MEAN_MOTION_DOT":-1.83e-6,"MEAN_MOTION_DDOT":0},{"OBJECT_NAME":"ONEWEB-0651","OBJECT_ID":"2023-043AL","EPOCH":"2025-11-03T16:28:30.194112","MEAN_MOTION":13.15548001,"ECCENTRICITY":0.0001551,"INCLINATION":87.8955,"RA_OF_ASC_NODE":304.2284,"ARG_OF_PERICENTER":88.3166,"MEAN_ANOMALY":271.8142,"EPHEMERIS_TYPE":0,"CLASSIFICATION_TYPE":"U","NORAD_CAT_ID":56080,"ELEMENT_SET_NO":999,"REV_AT_EPOCH":12797,"BSTAR":0.00043885,"MEAN_MOTION_DOT":1.78e-6,"MEAN_MOTION_DDOT":0},{"OBJECT_NAME":"ONEWEB-0718","OBJECT_ID":"2023-043AM","EPOCH":"2025-11-02T11:09:17.881056","MEAN_MOTION":13.15550215,"ECCENTRICITY":0.0002258,"INCLINATION":87.8962,"RA_OF_ASC_NODE":304.4531,"ARG_OF_PERICENTER":78.3805,"MEAN_ANOMALY":281.7579,"EPHEMERIS_TYPE":0,"CLASSIFICATION_TYPE":"U","NORAD_CAT_ID":56081,"ELEMENT_SET_NO":999,"REV_AT_EPOCH":12662,"BSTAR":1.4552e-5,"MEAN_MOTION_DOT":1.8e-7,"MEAN_MOTION_DDOT":0},{"OBJECT_NAME":"ONEWEB-0561","OBJECT_ID":"2023-068A","EPOCH":"2025-11-02T10:59:06.406656","MEAN_MOTION":13.20770911,"ECCENTRICITY":0.0001615,"INCLINATION":87.9185,"RA_OF_ASC_NODE":319.6714,"ARG_OF_PERICENTER":106.0636,"MEAN_ANOMALY":254.0675,"EPHEMERIS_TYPE":0,"CLASSIFICATION_TYPE":"U","NORAD_CAT_ID":56710,"ELEMENT_SET_NO":999,"REV_AT_EPOCH":11957,"BSTAR":8.5349e-5,"MEAN_MOTION_DOT":4.8e-7,"MEAN_MOTION_DDOT":0},{"OBJECT_NAME":"ONEWEB-0668","OBJECT_ID":"2023-068B","EPOCH":"2025-11-03T15:42:25.793280","MEAN_MOTION":13.18149549,"ECCENTRICITY":0.0002071,"INCLINATION":87.9006,"RA_OF_ASC_NODE":273.6777,"ARG_OF_PERICENTER":69.6789,"MEAN_ANOMALY":290.4566,"EPHEMERIS_TYPE":0,"CLASSIFICATION_TYPE":"U","NORAD_CAT_ID":56711,"ELEMENT_SET_NO":999,"REV_AT_EPOCH":12210,"BSTAR":4.8788e-5,"MEAN_MOTION_DOT":3.2e-7,"MEAN_MOTION_DDOT":0},{"OBJECT_NAME":"ONEWEB-0676","OBJECT_ID":"2023-068C","EPOCH":"2025-11-03T15:35:47.642208","MEAN_MOTION":13.16582397,"ECCENTRICITY":0.0001939,"INCLINATION":87.899,"RA_OF_ASC_NODE":273.6992,"ARG_OF_PERICENTER":85.548,"MEAN_ANOMALY":274.5872,"EPHEMERIS_TYPE":0,"CLASSIFICATION_TYPE":"U","NORAD_CAT_ID":56712,"ELEMENT_SET_NO":999,"REV_AT_EPOCH":12202,"BSTAR":0.0074168,"MEAN_MOTION_DOT":2.849e-5,"MEAN_MOTION_DDOT":0},{"OBJECT_NAME":"ONEWEB-0677","OBJECT_ID":"2023-068D","EPOCH":"2025-11-03T17:37:42.872736","MEAN_MOTION":13.20773364,"ECCENTRICITY":0.0001711,"INCLINATION":87.9189,"RA_OF_ASC_NODE":319.3962,"ARG_OF_PERICENTER":90.8495,"MEAN_ANOMALY":269.2834,"EPHEMERIS_TYPE":0,"CLASSIFICATION_TYPE":"U","NORAD_CAT_ID":56713,"ELEMENT_SET_NO":999,"REV_AT_EPOCH":12004,"BSTAR":0.00036037,"MEAN_MOTION_DOT":1.6e-6,"MEAN_MOTION_DDOT":0},{"OBJECT_NAME":"ONEWEB-0678","OBJECT_ID":"2023-068E","EPOCH":"2025-11-03T17:25:32.715840","MEAN_MOTION":13.15549645,"ECCENTRICITY":0.0002035,"INCLINATION":87.8957,"RA_OF_ASC_NODE":304.175,"ARG_OF_PERICENTER":99.3867,"MEAN_ANOMALY":260.7494,"EPHEMERIS_TYPE":0,"CLASSIFICATION_TYPE":"U","NORAD_CAT_ID":56714,"ELEMENT_SET_NO":999,"REV_AT_EPOCH":11964,"BSTAR":-2.8509e-5,"MEAN_MOTION_DOT":2.0e-8,"MEAN_MOTION_DDOT":0},{"OBJECT_NAME":"ONEWEB-0679","OBJECT_ID":"2023-068F","EPOCH":"2025-11-03T20:05:02.086944","MEAN_MOTION":13.16594754,"ECCENTRICITY":0.0001551,"INCLINATION":87.899,"RA_OF_ASC_NODE":273.6478,"ARG_OF_PERICENTER":69.28,"MEAN_ANOMALY":290.8497,"EPHEMERIS_TYPE":0,"CLASSIFICATION_TYPE":"U","NORAD_CAT_ID":56715,"ELEMENT_SET_NO":999,"REV_AT_EPOCH":12207,"BSTAR":0.00014776,"MEAN_MOTION_DOT":6.9e-7,"MEAN_MOTION_DDOT":0},{"OBJECT_NAME":"ONEWEB-0680","OBJECT_ID":"2023-068G","EPOCH":"2025-11-03T16:08:46.400064","MEAN_MOTION":13.21824957,"ECCENTRICITY":0.0001923,"INCLINATION":87.9173,"RA_OF_ASC_NODE":288.9485,"ARG_OF_PERICENTER":67.8777,"MEAN_ANOMALY":292.2561,"EPHEMERIS_TYPE":0,"CLASSIFICATION_TYPE":"U","NORAD_CAT_ID":56716,"ELEMENT_SET_NO":999,"REV_AT_EPOCH":12130,"BSTAR":-0.00020037,"MEAN_MOTION_DOT":-7.0e-7,"MEAN_MOTION_DDOT":0},{"OBJECT_NAME":"ONEWEB-0681","OBJECT_ID":"2023-068H","EPOCH":"2025-11-03T15:39:11.229120","MEAN_MOTION":13.21827021,"ECCENTRICITY":9.72e-5,"INCLINATION":87.917,"RA_OF_ASC_NODE":288.9704,"ARG_OF_PERICENTER":109.1676,"MEAN_ANOMALY":250.9563,"EPHEMERIS_TYPE":0,"CLASSIFICATION_TYPE":"U","NORAD_CAT_ID":56717,"ELEMENT_SET_NO":999,"REV_AT_EPOCH":12129,"BSTAR":0.00013733,"MEAN_MOTION_DOT":7.0e-7,"MEAN_MOTION_DDOT":0},{"OBJECT_NAME":"ONEWEB-0682","OBJECT_ID":"2023-068J","EPOCH":"2025-11-02T11:01:19.581024","MEAN_MOTION":13.15548553,"ECCENTRICITY":0.0001831,"INCLINATION":87.8958,"RA_OF_ASC_NODE":304.4454,"ARG_OF_PERICENTER":74.7414,"MEAN_ANOMALY":285.3918,"EPHEMERIS_TYPE":0,"CLASSIFICATION_TYPE":"U","NORAD_CAT_ID":56718,"ELEMENT_SET_NO":999,"REV_AT_EPOCH":11964,"BSTAR":0.00047805,"MEAN_MOTION_DOT":1.93e-6,"MEAN_MOTION_DDOT":0},{"OBJECT_NAME":"ONEWEB-0683","OBJECT_ID":"2023-068K","EPOCH":"2025-11-03T16:44:29.158944","MEAN_MOTION":13.15549188,"ECCENTRICITY":0.0001882,"INCLINATION":87.896,"RA_OF_ASC_NODE":304.1785,"ARG_OF_PERICENTER":81.5724,"MEAN_ANOMALY":278.5619,"EPHEMERIS_TYPE":0,"CLASSIFICATION_TYPE":"U","NORAD_CAT_ID":56719,"ELEMENT_SET_NO":999,"REV_AT_EPOCH":11977,"BSTAR":2.7292e-5,"MEAN_MOTION_DOT":2.3e-7,"MEAN_MOTION_DDOT":0},{"OBJECT_NAME":"ONEWEB-0684","OBJECT_ID":"2023-068L","EPOCH":"2025-11-03T16:55:53.910048","MEAN_MOTION":13.15548996,"ECCENTRICITY":0.0003128,"INCLINATION":87.8955,"RA_OF_ASC_NODE":304.1722,"ARG_OF_PERICENTER":103.8436,"MEAN_ANOMALY":256.3042,"EPHEMERIS_TYPE":0,"CLASSIFICATION_TYPE":"U","NORAD_CAT_ID":56720,"ELEMENT_SET_NO":999,"REV_AT_EPOCH":11960,"BSTAR":1.8708e-5,"MEAN_MOTION_DOT":2.0e-7,"MEAN_MOTION_DDOT":0},{"OBJECT_NAME":"ONEWEB-0686","OBJECT_ID":"2023-068M","EPOCH":"2025-11-03T14:36:31.037184","MEAN_MOTION":13.1659547,"ECCENTRICITY":0.0002194,"INCLINATION":87.8987,"RA_OF_ASC_NODE":273.7261,"ARG_OF_PERICENTER":78.0723,"MEAN_ANOMALY":282.0654,"EPHEMERIS_TYPE":0,"CLASSIFICATION_TYPE":"U","NORAD_CAT_ID":56721,"ELEMENT_SET_NO":999,"REV_AT_EPOCH":12203,"BSTAR":0.00011959,"MEAN_MOTION_DOT":5.9e-7,"MEAN_MOTION_DDOT":0},{"OBJECT_NAME":"ONEWEB-0694","OBJECT_ID":"2023-068N","EPOCH":"2025-11-02T10:27:06.304032","MEAN_MOTION":13.1659464,"ECCENTRICITY":0.0001853,"INCLINATION":87.9002,"RA_OF_ASC_NODE":273.8988,"ARG_OF_PERICENTER":69.6927,"MEAN_ANOMALY":290.4403,"EPHEMERIS_TYPE":0,"CLASSIFICATION_TYPE":"U","NORAD_CAT_ID":56722,"ELEMENT_SET_NO":999,"REV_AT_EPOCH":12193,"BSTAR":-0.00023737,"MEAN_MOTION_DOT":-7.8e-7,"MEAN_MOTION_DDOT":0},{"OBJECT_NAME":"ONEWEB-0696","OBJECT_ID":"2023-068P","EPOCH":"2025-11-03T17:43:48.438912","MEAN_MOTION":13.15548631,"ECCENTRICITY":0.0002032,"INCLINATION":87.8955,"RA_OF_ASC_NODE":304.2214,"ARG_OF_PERICENTER":99.9587,"MEAN_ANOMALY":260.1772,"EPHEMERIS_TYPE":0,"CLASSIFICATION_TYPE":"U","NORAD_CAT_ID":56723,"ELEMENT_SET_NO":999,"REV_AT_EPOCH":11972,"BSTAR":1.1648e-5,"MEAN_MOTION_DOT":1.7e-7,"MEAN_MOTION_DDOT":0}]
